[{"OBJECT_NAME":"STARLINK-31975","OBJECT_ID":"2024-100B","EPOCH":"2026-03-09T12:57:49.659840","MEAN_MOTION":15.2759966,"ECCENTRICITY":8.598e-5,"INCLINATION":43.0001,"RA_OF_ASC_NODE":126.2718,"ARG_OF_PERICENTER":177.9327,"MEAN_ANOMALY":182.1528,"EPHEMERIS_TYPE":0,"CLASSIFICATION_TYPE":"U","NORAD_CAT_ID":59886,"ELEMENT_SET_NO":999,"REV_AT_EPOCH":10113,"BSTAR":-0.00030686127,"MEAN_MOTION_DOT":-8.701e-5,"MEAN_MOTION_DDOT":0},{"OBJECT_NAME":"EDISON-1","OBJECT_ID":"2025-009B","EPOCH":"2026-03-09T19:16:13.822464","MEAN_MOTION":15.29042904,"ECCENTRICITY":0.00043285,"INCLINATION":97.4042,"RA_OF_ASC_NODE":151.6286,"ARG_OF_PERICENTER":306.4185,"MEAN_ANOMALY":53.6655,"EPHEMERIS_TYPE":0,"CLASSIFICATION_TYPE":"U","NORAD_CAT_ID":62610,"ELEMENT_SET_NO":999,"REV_AT_EPOCH":6375,"BSTAR":0.00052814963,"MEAN_MOTION_DOT":0.00014835,"MEAN_MOTION_DDOT":0}]
